{
  "type": "FeatureCollection",
  "features": [
    {
      "type": "Feature",
      "properties": {
        "norad_id": 37238,
        "name": "INTELSAT 17 (IS-17)",
        "group": "intelsat",
        "lat": -0.02432777841913676,
        "lon": -125.94903768453742,
        "alt_km": 35776.827568285116,
        "timestamp": "2025-12-12T05:47:28.439760+00:00",
        "meta_object_name": "INTELSAT 17 (IS-17)",
        "meta_object_id": "2010-065B",
        "meta_epoch": "2025-12-11T23:16:10.396992",
        "meta_mean_motion": 1.00271308,
        "meta_eccentricity": 0.000251,
        "meta_inclination": 0.0095,
        "meta_ra_of_asc_node": 302.1237,
        "meta_arg_of_pericenter": 319.9634,
        "meta_mean_anomaly": 233.8902,
        "meta_ephemeris_type": 0,
        "meta_classification_type": "U",
        "meta_norad_cat_id": 37238,
        "meta_element_set_no": 999,
        "meta_rev_at_epoch": 5137,
        "meta_bstar": 0,
        "meta_mean_motion_dot": 7e-08,
        "meta_mean_motion_ddot": 0,
        "tle_line1": "1 37238U 10065B   25345.96956478  .00000007  00000+0  00000+0 0  9993",
        "tle_line2": "2 37238   0.0095 302.1237 0002510 319.9634 233.8902  1.00271308 51375"
      },
      "geometry": {
        "type": "Point",
        "coordinates": [
          -125.94903768453742,
          -0.02432777841913676
        ]
      }
    },
    {
      "type": "Feature",
      "properties": {
        "norad_id": 37392,
        "name": "INTELSAT 28 (IS-28)",
        "group": "intelsat",
        "lat": 1.0397331309552869,
        "lon": 136.3247833194939,
        "alt_km": 35795.65619507072,
        "timestamp": "2025-12-12T05:47:28.439771+00:00",
        "meta_object_name": "INTELSAT 28 (IS-28)",
        "meta_object_id": "2011-016A",
        "meta_epoch": "2025-12-11T21:55:19.234848",
        "meta_mean_motion": 1.00273299,
        "meta_eccentricity": 0.00038311,
        "meta_inclination": 1.3227,
        "meta_ra_of_asc_node": 85.0544,
        "meta_arg_of_pericenter": 179.8973,
        "meta_mean_anomaly": 113.0556,
        "meta_ephemeris_type": 0,
        "meta_classification_type": "U",
        "meta_norad_cat_id": 37392,
        "meta_element_set_no": 999,
        "meta_rev_at_epoch": 5140,
        "meta_bstar": 0,
        "meta_mean_motion_dot": -2.16e-06,
        "meta_mean_motion_ddot": 0,
        "tle_line1": "1 37392U 11016A   25345.91341707 -.00000216  00000+0  00000+0 0  9992",
        "tle_line2": "2 37392   1.3227  85.0544 0003831 179.8973 113.0556  1.00273299 51400"
      },
      "geometry": {
        "type": "Point",
        "coordinates": [
          136.3247833194939,
          1.0397331309552869
        ]
      }
    },
    {
      "type": "Feature",
      "properties": {
        "norad_id": 37834,
        "name": "INTELSAT 18 (IS-18)",
        "group": "intelsat",
        "lat": 0.01576925153780023,
        "lon": -11.931290733673446,
        "alt_km": 35784.56180176614,
        "timestamp": "2025-12-12T05:47:28.439783+00:00",
        "meta_object_name": "INTELSAT 18 (IS-18)",
        "meta_object_id": "2011-056A",
        "meta_epoch": "2025-12-11T19:30:10.636704",
        "meta_mean_motion": 1.00271439,
        "meta_eccentricity": 0.00019117,
        "meta_inclination": 0.0135,
        "meta_ra_of_asc_node": 297.3081,
        "meta_arg_of_pericenter": 332.1304,
        "meta_mean_anomaly": 283.8677,
        "meta_ephemeris_type": 0,
        "meta_classification_type": "U",
        "meta_norad_cat_id": 37834,
        "meta_element_set_no": 999,
        "meta_rev_at_epoch": 5193,
        "meta_bstar": 0,
        "meta_mean_motion_dot": 6.1e-07,
        "meta_mean_motion_ddot": 0,
        "tle_line1": "1 37834U 11056A   25345.81262311  .00000061  00000+0  00000+0 0  9996",
        "tle_line2": "2 37834   0.0135 297.3081 0001911 332.1304 283.8677  1.00271439 51930"
      },
      "geometry": {
        "type": "Point",
        "coordinates": [
          -11.931290733673446,
          0.01576925153780023
        ]
      }
    },
    {
      "type": "Feature",
      "properties": {
        "norad_id": 38098,
        "name": "INTELSAT 22 (IS-22)",
        "group": "intelsat",
        "lat": -0.018360831120897272,
        "lon": -119.83415087935144,
        "alt_km": 35779.65525676338,
        "timestamp": "2025-12-12T05:47:28.439795+00:00",
        "meta_object_name": "INTELSAT 22 (IS-22)",
        "meta_object_id": "2012-011A",
        "meta_epoch": "2025-12-11T22:24:53.902080",
        "meta_mean_motion": 1.00271194,
        "meta_eccentricity": 0.00017362,
        "meta_inclination": 0.0016,
        "meta_ra_of_asc_node": 356.1122,
        "meta_arg_of_pericenter": 270.3163,
        "meta_mean_anomaly": 222.8053,
        "meta_ephemeris_type": 0,
        "meta_classification_type": "U",
        "meta_norad_cat_id": 38098,
        "meta_element_set_no": 999,
        "meta_rev_at_epoch": 531,
        "meta_bstar": 0,
        "meta_mean_motion_dot": -5e-07,
        "meta_mean_motion_ddot": 0,
        "tle_line1": "1 38098U 12011A   25345.93395720 -.00000050  00000+0  00000+0 0  9994",
        "tle_line2": "2 38098   0.0016 356.1122 0001736 270.3163 222.8053  1.00271194  5312"
      },
      "geometry": {
        "type": "Point",
        "coordinates": [
          -119.83415087935144,
          -0.018360831120897272
        ]
      }
    },
    {
      "type": "Feature",
      "properties": {
        "norad_id": 38356,
        "name": "INTELSAT 19 (IS-19)",
        "group": "intelsat",
        "lat": -0.0048806724335384005,
        "lon": -25.900903368233134,
        "alt_km": 35779.762840773205,
        "timestamp": "2025-12-12T05:47:28.439806+00:00",
        "meta_object_name": "INTELSAT 19 (IS-19)",
        "meta_object_id": "2012-030A",
        "meta_epoch": "2025-12-11T21:08:53.681568",
        "meta_mean_motion": 1.00272276,
        "meta_eccentricity": 0.00034386,
        "meta_inclination": 0.0092,
        "meta_ra_of_asc_node": 350.6258,
        "meta_arg_of_pericenter": 278.6694,
        "meta_mean_anomaly": 294.773,
        "meta_ephemeris_type": 0,
        "meta_classification_type": "U",
        "meta_norad_cat_id": 38356,
        "meta_element_set_no": 999,
        "meta_rev_at_epoch": 4857,
        "meta_bstar": 0,
        "meta_mean_motion_dot": -4.8e-07,
        "meta_mean_motion_ddot": 0,
        "tle_line1": "1 38356U 12030A   25345.88117687 -.00000048  00000+0  00000+0 0  9997",
        "tle_line2": "2 38356   0.0092 350.6258 0003438 278.6694 294.7730  1.00272276 48570"
      },
      "geometry": {
        "type": "Point",
        "coordinates": [
          -25.900903368233134,
          -0.0048806724335384005
        ]
      }
    },
    {
      "type": "Feature",
      "properties": {
        "norad_id": 38740,
        "name": "INTELSAT 20 (IS-20)",
        "group": "intelsat",
        "lat": -0.0004568780065819615,
        "lon": -123.41520271893248,
        "alt_km": 35779.4710273568,
        "timestamp": "2025-12-12T05:47:28.439819+00:00",
        "meta_object_name": "INTELSAT 20 (IS-20)",
        "meta_object_id": "2012-043A",
        "meta_epoch": "2025-12-11T19:58:55.649856",
        "meta_mean_motion": 1.00270334,
        "meta_eccentricity": 0.00027081,
        "meta_inclination": 0.0053,
        "meta_ra_of_asc_node": 83.8279,
        "meta_arg_of_pericenter": 100.6018,
        "meta_mean_anomaly": 264.5986,
        "meta_ephemeris_type": 0,
        "meta_classification_type": "U",
        "meta_norad_cat_id": 38740,
        "meta_element_set_no": 999,
        "meta_rev_at_epoch": 4887,
        "meta_bstar": 0,
        "meta_mean_motion_dot": -1.6e-07,
        "meta_mean_motion_ddot": 0,
        "tle_line1": "1 38740U 12043A   25345.83258854 -.00000016  00000+0  00000+0 0  9990",
        "tle_line2": "2 38740   0.0053  83.8279 0002708 100.6018 264.5986  1.00270334 48879"
      },
      "geometry": {
        "type": "Point",
        "coordinates": [
          -123.41520271893248,
          -0.0004568780065819615
        ]
      }
    },
    {
      "type": "Feature",
      "properties": {
        "norad_id": 38749,
        "name": "INTELSAT 21 (IS-21)",
        "group": "intelsat",
        "lat": 0.02431846077649988,
        "lon": 110.04391323253948,
        "alt_km": 35792.51635987233,
        "timestamp": "2025-12-12T05:47:28.439830+00:00",
        "meta_object_name": "INTELSAT 21 (IS-21)",
        "meta_object_id": "2012-045A",
        "meta_epoch": "2025-12-11T23:30:27.159264",
        "meta_mean_motion": 1.00272538,
        "meta_eccentricity": 0.00018585,
        "meta_inclination": 0.0232,
        "meta_ra_of_asc_node": 63.452,
        "meta_arg_of_pericenter": 193.8598,
        "meta_mean_anomaly": 118.2349,
        "meta_ephemeris_type": 0,
        "meta_classification_type": "U",
        "meta_norad_cat_id": 38749,
        "meta_element_set_no": 999,
        "meta_rev_at_epoch": 4864,
        "meta_bstar": 0,
        "meta_mean_motion_dot": -2.76e-06,
        "meta_mean_motion_ddot": 0,
        "tle_line1": "1 38749U 12045A   25345.97948101 -.00000276  00000+0  00000+0 0  9995",
        "tle_line2": "2 38749   0.0232  63.4520 0001858 193.8598 118.2349  1.00272538 48643"
      },
      "geometry": {
        "type": "Point",
        "coordinates": [
          110.04391323253948,
          0.02431846077649988
        ]
      }
    }
  ]
}